
ONEWEB-0008             
1 44059U 19010C   24349.69383960  .00000064  00000+0  13487-3 0  9994
2 44059  87.9082 338.2636 0001996  90.7027 269.4332 13.16594026279429
ONEWEB-0007             
1 44060U 19010D   24349.82484523  .00000161  00000+0  39458-3 0  9992
2 44060  87.9075   8.5877 0001541  81.7099 278.4206 13.15550194279182
ONEWEB-0006             
1 44061U 19010E   24349.06823433  .00000080  00000+0  17790-3 0  9991
2 44061  87.9067   8.7048 0001484  88.6765 271.4535 13.15550028279092
ONEWEB-0011             
1 44062U 19010F   24348.80996688  .00000164  00000+0  40129-3 0  9991
2 44062  87.9067   8.7603 0001645 101.8745 258.2570 13.15548870279088
S5                      
1 44065U 19009D   24349.60779286  .00000052  00000+0  00000+0 0  9990
2 44065   5.1562  77.3849 0004152 152.8477 322.2419  0.99334776 20973
ZHONGXING-6C            
1 44067U 19012A   24350.49043531 -.00000327  00000+0  00000+0 0  9998
2 44067   0.0732  84.1142 0002980 185.4950 122.0085  1.00270825 21237
WGS 10 (USA 291)        
1 44071U 19014A   24348.46378000  .00000060  00000+0  00000+0 0  9994
2 44071   0.0211 358.7223 0000523 225.8923  85.2825  1.00268964 21103
PRISMA                  
1 44072U 19015A   24350.77110238  .00002011  00000+0  24980-3 0  9995
2 44072  97.8694  62.4099 0001238  91.8467 268.2888 14.83693867310732
TIANLIAN 2-01           
1 44076U 19017A   24350.86143826 -.00000099  00000+0  00000+0 0  9998
2 44076   0.1626  96.5919 0003709 187.4512 188.1011  1.00271099 21118
EMISAT                  
1 44078U 19018A   24350.78712495  .00000556  00000+0  17582-3 0  9990
2 44078  98.3149  46.1266 0019727  74.7738 285.5632 14.43689294300921
O3B FM20                
1 44112U 19020A   24348.91304859 -.00000016  00000+0  00000+0 0  9990
2 44112   0.0523 359.6111 0002977 275.3088  85.0480  5.00115040104138
O3B FM19                
1 44113U 19020B   24350.53949052 -.00000020  00000+0  00000+0 0  9997
2 44113   0.0566 348.2091 0001298 280.5088  91.2679  5.00115254104204
O3B FM17                
1 44114U 19020C   24349.81968816 -.00000019  00000+0  00000+0 0  9994
2 44114   0.0470  21.5141 0003059 248.5357  89.9163  5.00114946104047
O3B FM18                
1 44115U 19020D   24349.56598940 -.00000018  00000+0  00000+0 0  9993
2 44115   0.0525 359.1596 0002958 267.0259  93.7820  5.00114846104151
ARABSAT-6A              
1 44186U 19021A   24350.67585091  .00000162  00000+0  00000+0 0  9998
2 44186   0.0343  11.0844 0004870 261.1447  86.4006  1.00274516 20650
BEIDOU-3 IGSO-1         
1 44204U 19023A   24343.73514140 -.00000223  00000+0  00000+0 0  9996
2 44204  57.8983  43.4038 0025030 212.8920 201.6175  1.00248996  1644
TIANHUI 2-01A           
1 44207U 19024A   24349.74206395  .00004369  00000+0  22612-3 0  9998
2 44207  97.4722 350.2540 0001683 103.2484 256.8936 15.16741375 18850
TIANHUI 2-01B           
1 44209U 19024C   24350.53373602  .00003907  00000+0  20257-3 0  9995
2 44209  97.4721 351.0318 0001856  96.1437 264.0008 15.16747594311736
BEIDOU-2 G8             
1 44231U 19027A   24350.10003510 -.00000239  00000+0  00000+0 0  9990
2 44231   1.9281  74.7941 0005090 201.5179 348.5304  1.00271115 20566
RISAT-2B                
1 44233U 19028A   24350.73531666  .00008495  00000+0  67619-3 0  9994
2 44233  36.9992   4.5286 0008561 235.5264 124.4670 14.99951901305514
COSMOS 2534 [GLONASS-M] 
1 44299U 19030A   24350.68087108  .00000078  00000+0  00000+0 0  9996
2 44299  64.3664 211.1004 0009331 288.2560 254.6649  2.13102010 43233
YAMAL 601               
1 44307U 19031A   24350.03383573  .00000130  00000+0  00000+0 0  9990
2 44307   0.0158  28.0076 0002777 236.6549 240.6999  1.00269885 20409
BUFENG 1A               
1 44310U 19032A   24350.80935511  .00014826  00000+0  84159-3 0  9993
2 44310  44.9757 140.9908 0007652 352.4783   7.5978 15.12852814303709
BUFENG 1B               
1 44311U 19032B   24350.78728681  .00016650  00000+0  79112-3 0  9999
2 44311  44.9764  98.9390 0008626  23.5655 336.5618 15.19047238304206
JILIN-1 GAOFEN 3A       
1 44312U 19032C   24350.76524404  .00013772  00000+0  68628-3 0  9997
2 44312  44.9829 101.2231 0008514  24.2702 335.8576 15.17521024304188
XIAOXIANG 4             
1 44313U 19032D   24350.64967631  .00040783  00000+0  12687-2 0  9993
2 44313  44.9958  70.3680 0011407  13.5138 346.6050 15.32652048304573
TIANQI-3                
1 44314U 19032E   24350.76880351  .00016681  00000+0  79947-3 0  9993
2 44314  44.9831  97.9001 0009538  25.8665 334.2690 15.18740975304225
RCM-1                   
1 44322U 19033A   24350.75461602  .00002401  00000+0  23884-3 0  9990
2 44322  97.7593 355.0384 0001517  91.5902 268.5491 14.92591275300277
RCM-3                   
1 44323U 19033B   24350.64315007  .00002128  00000+0  21229-3 0  9993
2 44323  97.7596 355.0243 0001545  90.1296 270.0100 14.92597738300272
RCM-2                   
1 44324U 19033C   24350.66536013  .00001701  00000+0  17082-3 0  9996
2 44324  97.7598 354.9980 0001540  88.8734 271.2662 14.92592136300269
AT&T T-16               
1 44333U 19034A   24350.57579132 -.00000107  00000+0  00000+0 0  9994
2 44333   0.0176   6.0354 0001410 132.2482  52.8601  1.00267323 20120
EUTELSAT 7C             
1 44334U 19034B   24350.08452023  .00000058  00000+0  00000+0 0  9994
2 44334   0.0709 184.2839 0003479  63.8283 233.5417  1.00270553 20622
BEIDOU-3 IGSO-2         
1 44337U 19035A   24349.90500993 -.00000061  00000+0  00000+0 0  9992
2 44337  55.1925 163.6829 0035392 196.6097 167.2712  1.00283246 20166
PROX-1                  
1 44339U 19036A   24350.49944163  .00019112  00000+0  28199-2 0  9990
2 44339  23.9969 133.2010 0006725 229.7031 130.2877 14.73749564292042
NPSAT1                  
1 44340U 19036B   24349.94509963  .00010301  00000+0  18000-2 0  9996
2 44340  23.9968 173.1728 0008780 154.2952 205.7979 14.65967413291607
OTB                     
1 44341U 19036C   24349.86388563  .00001653  00000+0  32577-3 0  9995
2 44341  23.9955 215.6901 0011552  91.0919 269.0896 14.55271335291208
FORMOSAT 7-3            
1 44343U 19036E   24350.12185778  .00010505  00000+0  65331-3 0  9991
2 44343  24.0013 346.9787 0001565  95.9013 264.1668 15.07424393300361
DSX                     
1 44344U 19036F   24348.92061457  .00000028  00000+0  00000+0 0  9991
2 44344  42.1916 191.9684 1965164 138.8940 237.7547  4.54375499 90832
FORMOSAT 7-1            
1 44349U 19036L   24349.79177647  .00009204  00000+0  56982-3 0  9990
2 44349  23.9968 165.2424 0002087  23.4043 336.6555 15.07422412302040
FORMOSAT 7-4            
1 44350U 19036M   24350.80608642  .00009743  00000+0  60418-3 0  9997
2 44350  23.9973 220.3724 0001909  67.1271 292.9434 15.07437955301636
FORMOSAT 7-2            
1 44351U 19036N   24350.49741582  .00010446  00000+0  64930-3 0  9999
2 44351  23.9989 276.8139 0001791  80.5026 279.5680 15.07437672301074
FORMOSAT 7-6            
1 44353U 19036Q   24350.36490768  .00010010  00000+0  62176-3 0  9991
2 44353  23.9987  98.5369 0002000  69.8903 290.1815 15.07411133299277
FORMOSAT 7-5            
1 44358U 19036V   24350.80622550  .00010298  00000+0  64003-3 0  9990
2 44358  24.0008  35.2964 0001872  97.6544 262.4171 15.07422656299902
METEOR-M2 2             
1 44387U 19038A   24350.85659197  .00000305  00000+0  15245-3 0  9998
2 44387  98.8525 321.0415 0001838 125.9666 234.1683 14.24090583283248
ICEYE-X5                
1 44389U 19038C   24350.78007330  .00022541  00000+0  95804-3 0  9993
2 44389  97.9207 353.1370 0013799  43.8980 316.3349 15.22974514298702
ICEYE-X4                
1 44390U 19038D   24350.79623719  .00013233  00000+0  70475-3 0  9996
2 44390  97.9014 345.2036 0017811  52.0463 308.2375 15.15216970298377
DOT-1                   
1 44399U 19038P   24350.48384101  .00205557  00000+0  13551-2 0  9993
2 44399  97.6948   0.3023 0008806 139.1672 221.0253 15.74988764302383
SONATE                  
1 44400U 19038Q   24349.59849062  .00046807  00000+0  81772-3 0  9990
2 44400  97.7115 353.7033 0011846 164.8284 195.3324 15.50457025301860
LUCKY-7                 
1 44406U 19038W   24350.60451215  .04281013  26839-5  12158-2 0  9998
2 44406  97.6738   4.7548 0004594 192.4790 167.6389 16.27669770302693
MOMENTUS-X1             
1 44408U 19038Y   24349.89438227  .00020331  00000+0  59585-3 0  9999
2 44408  97.7216 347.1296 0013978 194.0731 166.0124 15.35143678301523
COSMOS 2538             
1 44424U 19039D   24350.82858893  .00009628  00000+0  54917-3 0  9998
2 44424  97.6493  56.9547 0051782 141.0867 219.4109 15.11821935296799
YAOGAN-30 06A           
1 44449U 19045A   24350.63452791  .00005890  00000+0  49162-3 0  9991
2 44449  34.9950  63.0191 0004943 176.9974 183.0763 14.97953969294207
YAOGAN-30 06B           
1 44450U 19045B   24350.87832610  .00006017  00000+0  50261-3 0  9995
2 44450  34.9943  61.1092 0007614 322.5774  37.4402 14.97904156294245
YAOGAN-30 06C           
1 44451U 19045C   24350.65654300  .00005913  00000+0  49387-3 0  9991
2 44451  34.9953  62.3078 0000631 210.2617 149.8054 14.97933637294174
MERIDIAN 8              
1 44453U 19046A   24350.40737648  .00000126  00000+0  00000+0 0  9990
2 44453  62.7472 117.4010 6846555 273.5517  16.9114  2.00593887 39414
COSMOS 2539             
1 44457U 19048A   24350.02757978  .00000090  00000+0  00000+0 0  9992
2 44457   0.0406 109.9176 0000484 146.4266 209.7634  1.00268204 19716
EDRS-C                  
1 44475U 19049A   24349.68047160  .00000165  00000+0  00000+0 0  9991
2 44475   0.0786 251.9411 0000743 331.4967 136.5628  1.00269092 19692
INTELSAT 39 (IS-39)     
1 44476U 19049B   24350.67956786  .00000041  00000+0  00000+0 0  9999
2 44476   0.0079  36.1147 0000541 141.0248 214.2710  1.00270942 19625
